H1 CPF 01  gfz 2022 04 28 00  6181 tandemx   
H2 1003001  6202 36605    2022 04 28 00 59 42 2022 05 03 00 00 42   120 1 1  0 0 0
H9
10 0 59698  16542.000000  0    6061901.245   2649198.732   1914727.797
10 0 59698  16662.000000  0    6311525.702   2559297.211   1031604.834
10 0 59698  16782.000000  0    6448825.043   2421270.040    130320.014
10 0 59698  16902.000000  0    6470641.123   2239540.300   -773259.198
10 0 59698  17022.000000  0    6375938.633   2019336.015  -1663240.703
10 0 59698  17142.000000  0    6165832.445   1766558.795  -2523993.288
10 0 59698  17262.000000  0    5843571.890   1487639.479  -3340428.798
10 0 59698  17382.000000  0    5414481.125   1189384.223  -4098270.191
10 0 59698  17502.000000  0    4885858.787    878816.208  -4784301.230
10 0 59698  17622.000000  0    4266840.907    563017.464  -5386591.772
10 0 59698  17742.000000  0    3568232.618    248973.982  -5894697.000
10 0 59698  17862.000000  0    2802311.244    -56572.386  -6299828.823
10 0 59698  17982.000000  0    1982604.601   -347262.783  -6594996.455
10 0 59698  18102.000000  0    1123651.519   -617248.473  -6775115.494
10 0 59698  18222.000000  0     240746.139   -861304.222  -6837087.591
10 0 59698  18342.000000  0    -650330.380  -1074925.465  -6779846.697
10 0 59698  18462.000000  0   -1533584.482  -1254408.818  -6604375.302
10 0 59698  18582.000000  0   -2393090.957  -1396914.935  -6313689.922
10 0 59698  18702.000000  0   -3213273.558  -1500512.538  -5912793.646
10 0 59698  18822.000000  0   -3979181.906  -1564203.628  -5408600.180
10 0 59698  18942.000000  0   -4676764.776  -1587929.548  -4809826.822
10 0 59698  19062.000000  0   -5293131.470  -1572556.856  -4126854.768
10 0 59698  19182.000000  0   -5816797.047  -1519843.504  -3371560.007
10 0 59698  19302.000000  0   -6237906.976  -1432385.760  -2557114.749
10 0 59698  19422.000000  0   -6548434.334  -1313546.151  -1697761.882
10 0 59698  19542.000000  0   -6742344.822  -1167364.174   -808566.660
10 0 59698  19662.000000  0   -6815725.261   -998451.479     94850.886
10 0 59698  19782.000000  0   -6766870.246   -811872.995    996596.958
10 0 59698  19902.000000  0   -6596324.865   -613018.764   1880791.868
10 0 59698  20022.000000  0   -6306881.881   -407469.028   2731858.917
10 0 59698  20142.000000  0   -5903533.602   -200855.701   3534807.554
10 0 59698  20262.000000  0   -5393378.832      1276.147   4275504.578
10 0 59698  20382.000000  0   -4785487.985    193602.251   4940926.583
10 0 59698  20502.000000  0   -4090731.477    371146.249   5519388.618
10 0 59698  20622.000000  0   -3321576.285    529397.048   6000747.050
10 0 59698  20742.000000  0   -2491853.242    664412.906   6376573.405
10 0 59698  20862.000000  0   -1616501.767    772910.551   6640296.499
10 0 59698  20982.000000  0    -711295.788    852338.694   6787311.386
10 0 59698  21102.000000  0     207441.996    900933.463   6815053.564
10 0 59698  21222.000000  0    1123133.717    917755.190   6723040.439
10 0 59698  21342.000000  0    2019244.288    902706.589   6512879.306
10 0 59698  21462.000000  0    2879579.017    856531.422   6188241.221
10 0 59698  21582.000000  0    3688577.223    780793.670   5754801.608
10 0 59698  21702.000000  0    4431596.617    677837.879   5220145.870
10 0 59698  21822.000000  0    5095182.537    550730.728   4593643.067
10 0 59698  21942.000000  0    5667319.806    403184.807   3886288.228
10 0 59698  22062.000000  0    6137660.627    239467.505   3110512.285
10 0 59698  22182.000000  0    6497721.711     64296.213   2279963.135
10 0 59698  22302.000000  0    6741046.014   -117279.686   1409263.735
10 0 59698  22422.000000  0    6863327.228   -300005.003    513749.756
10 0 59698  22542.000000  0    6862491.123   -478550.109   -390808.032
10 0 59698  22662.000000  0    6738731.830   -647645.425  -1288491.125
10 0 59698  22782.000000  0    6494501.678   -802214.692  -2163522.025
10 0 59698  22902.000000  0    6134455.666   -937503.491  -3000548.910
10 0 59698  23022.000000  0    5665352.696  -1049200.092  -3784919.290
10 0 59698  23142.000000  0    5095916.616  -1133545.264  -4502937.622
10 0 59698  23262.000000  0    4436661.551  -1187428.229  -5142101.331
10 0 59698  23382.000000  0    3699687.044  -1208467.727  -5691312.359
10 0 59698  23502.000000  0    2898446.624  -1195076.770  -6141060.846
10 0 59698  23622.000000  0    2047496.514  -1146508.699  -6483578.430
10 0 59698  23742.000000  0    1162229.496  -1062883.926  -6712961.295
10 0 59698  23862.000000  0     258598.339   -945199.035  -6825261.677
10 0 59698  23982.000000  0    -647167.139   -795316.500  -6818548.386
10 0 59698  24102.000000  0   -1538844.522   -615935.793  -6692936.192
10 0 59698  24222.000000  0   -2400503.021   -410545.808  -6450584.165
10 0 59698  24342.000000  0   -3216781.396   -183359.685  -6095661.328
10 0 59698  24462.000000  0   -3973156.321     60767.144  -5634283.536
10 0 59698  24582.000000  0   -4656200.973    316434.988  -5074419.079
10 0 59698  24702.000000  0   -5253825.924    577811.754  -4425762.407
10 0 59698  24822.000000  0   -5755500.953    838757.866  -3699578.596
10 0 59698  24942.000000  0   -6152451.418   1092962.244  -2908516.708
10 0 59698  25062.000000  0   -6437824.126   1334085.622  -2066395.423
10 0 59698  25182.000000  0   -6606818.446   1555907.784  -1187964.118
10 0 59698  25302.000000  0   -6656779.774   1752476.527   -288642.636
10 0 59698  25422.000000  0   -6587249.531   1918252.374    615755.988
10 0 59698  25542.000000  0   -6399970.797   2048246.736   1509310.753
10 0 59698  25662.000000  0   -6098850.520   2138150.388   2376281.724
10 0 59698  25782.000000  0   -5689877.477   2184448.063   3201396.468
10 0 59698  25902.000000  0   -5180998.344   2184515.371   3970127.097
10 0 59698  26022.000000  0   -4581955.000   2136696.182   4668950.872
10 0 59698  26142.000000  0   -3904089.087   2040359.192   5285589.170
10 0 59698  26262.000000  0   -3160119.235   1895932.608   5809221.833
10 0 59698  26382.000000  0   -2363894.718   1704916.602   6230674.756
10 0 59698  26502.000000  0   -1530130.030   1469872.155   6542575.549
10 0 59698  26622.000000  0    -674128.077   1194387.068   6739475.617
10 0 59698  26742.000000  0     188501.939    883020.716   6817938.376
10 0 59698  26862.000000  0    1042128.385    541227.980   6776595.273
10 0 59698  26982.000000  0    1871379.264    175263.910   6616167.986
10 0 59698  27102.000000  0    2661417.809   -207929.911   6339457.180
10 0 59698  27222.000000  0    3398210.990   -600857.377   5951296.559
10 0 59698  27342.000000  0    4068776.568   -995610.362   5458475.892
10 0 59698  27462.000000  0    4661416.150  -1384026.454   4869627.973
10 0 59698  27582.000000  0    5165930.403  -1757858.727   4195080.807
10 0 59698  27702.000000  0    5573800.901  -2108947.505   3446682.347
10 0 59698  27822.000000  0    5878343.063  -2429396.857   2637593.634
10 0 59698  27942.000000  0    6074823.009  -2711749.542   1782055.952
10 0 59698  28062.000000  0    6160537.111  -2949155.708    895136.917
10 0 59698  28182.000000  0    6134851.590  -3135532.277     -7542.018
10 0 59698  28302.000000  0    5999199.228  -3265707.598   -910088.903
10 0 59698  28422.000000  0    5757034.716  -3335548.233  -1796631.087
10 0 59698  28542.000000  0    5413747.576  -3342063.551  -2651602.248
10 0 59698  28662.000000  0    4976538.920  -3283487.100  -3460021.131
10 0 59698  28782.000000  0    4454263.362  -3159332.465  -4207756.750
10 0 59698  28902.000000  0    3857241.368  -2970423.198  -4881774.612
10 0 59698  29022.000000  0    3197046.070  -2718894.976  -5470359.103
10 0 59698  29142.000000  0    2486272.284  -2408171.751  -5963307.499
10 0 59698  29262.000000  0    1738293.716  -2042918.328  -6352096.417
10 0 59698  29382.000000  0     967010.064  -1628968.017  -6630019.864
10 0 59698  29502.000000  0     186589.522  -1173227.065  -6792293.697
10 0 59698  29622.000000  0    -588787.285   -683559.778  -6836128.507
10 0 59698  29742.000000  0   -1345178.721   -168655.248  -6760771.723
10 0 59698  29862.000000  0   -2069127.131    362123.243  -6567518.875
10 0 59698  29982.000000  0   -2747892.494    898903.902  -6259692.994
10 0 59698  30102.000000  0   -3369671.880   1431484.949  -5842594.022
10 0 59698  30222.000000  0   -3923803.547   1949523.777  -5323418.188
10 0 59698  30342.000000  0   -4400953.070   2442734.672  -4711145.839
10 0 59698  30462.000000  0   -4793276.149   2901091.998  -4016396.618
10 0 59698  30582.000000  0   -5094554.505   3315033.051  -3251255.009
10 0 59698  30702.000000  0   -5300303.639   3675658.385  -2429068.721
10 0 59698  30822.000000  0   -5407847.802   3974924.716  -1564219.777
10 0 59698  30942.000000  0   -5416360.779   4205824.635   -671873.380
10 0 59698  31062.000000  0   -5326870.101   4362548.891    232291.686
10 0 59698  31182.000000  0   -5142223.928   4440627.311   1132365.864
10 0 59698  31302.000000  0   -4867019.488   4437042.124   2012498.449
10 0 59698  31422.000000  0   -4507496.078   4350311.930   2857185.704
10 0 59698  31542.000000  0   -4071395.253   4180545.275   3651551.766
10 0 59698  31662.000000  0   -3567792.184   3929461.018   4381616.697
10 0 59698  31782.000000  0   -3006903.323   3600375.703   5034545.716
10 0 59698  31902.000000  0   -2399874.164   3198158.455   5598875.570
10 0 59698  32022.000000  0   -1758552.604   2729155.090   6064713.372
10 0 59698  32142.000000  0   -1095252.997   2201083.126   6423905.260
10 0 59698  32262.000000  0    -422517.071   1622899.972   6670171.451
10 0 59698  32382.000000  0     247122.666   1004648.553   6799210.222
10 0 59698  32502.000000  0     901376.433    357281.371   6808768.414
10 0 59698  32622.000000  0    1528421.686   -307533.048   6698677.977
10 0 59698  32742.000000  0    2117115.910   -977619.835   6470859.563
10 0 59698  32862.000000  0    2657194.459  -1640520.163   6129291.365
10 0 59698  32982.000000  0    3139451.428  -2283722.550   5679944.980
99
